STARLINK-5763           
1 56505U 23065C   23151.88102813  .00011678  00000+0  92327-4 0  9999
2 56505  43.0001 337.6988 0002114 264.9286  95.1340 15.71368024  3990
STARLINK-5340           
1 56506U 23065D   23151.88123829  .00010961  00000+0  86880-4 0  9991
2 56506  43.0005 337.7019 0002228 268.2285  91.8327 15.71367534  3996
STARLINK-5333           
1 56507U 23065E   23151.91667824  .00051646  00000+0  39527-3 0  9994
2 56507  43.0021 337.4102 0001594 276.3345 317.8769 15.71329995  1300
STARLINK-5335           
1 56508U 23065F   23151.88092385  .00009415  00000+0  75132-4 0  9995
2 56508  43.0002 337.6978 0002100 266.0799  93.9829 15.71364507  3990
STARLINK-5334           
1 56509U 23065G   23151.88050313 -.00011195  00000+0 -82088-4 0  9999
2 56509  43.0003 337.6955 0002232 264.2140  95.8473 15.71338135  3997
STARLINK-5339           
1 56510U 23065H   23151.88071408  .00007114  00000+0  57635-4 0  9993
2 56510  43.0003 337.6957 0001996 266.7163  93.3476 15.71360346  3994
STARLINK-5351           
1 56511U 23065J   23151.88028769  .00017779  00000+0  13864-3 0  9999
2 56511  43.0001 337.6945 0002156 264.9119  95.1503 15.71370307  3999
STARLINK-5349           
1 56512U 23065K   23151.88060785  .00056726  00000+0  43272-3 0  9995
2 56512  42.9999 337.6964 0002110 271.2383  88.8243 15.71374199  3992
STARLINK-5329           
1 56513U 23065L   23151.88008181  .00026354  00000+0  20360-3 0  9995
2 56513  43.0002 337.6927 0002135 273.1951  86.8673 15.71375710  3993
STARLINK-5343           
1 56514U 23065M   23151.91667824  .00108121  00000+0  79076-3 0  9996
2 56514  43.0031 337.1986 0002938 290.4042  27.9047 15.72133269  3218
STARLINK-5348           
1 56515U 23065N   23151.87997657  .00036544  00000+0  28055-3 0  9992
2 56515  43.0000 337.6917 0002079 276.6763  83.3868 15.71384344  3999
STARLINK-5342           
1 56516U 23065P   23151.88018718  .00057349  00000+0  43727-3 0  9995
2 56516  43.0000 337.6929 0002205 275.5936  84.4681 15.71381441  3994
STARLINK-5345           
1 56517U 23065Q   23151.87966136  .00013968  00000+0  10970-3 0  9994
2 56517  43.0001 337.6908 0002044 274.8568  85.2067 15.71372917  3992
STARLINK-5346           
1 56518U 23065R   23151.87987146  .00051074  00000+0  39023-3 0  9999
2 56518  43.0000 337.6901 0002105 271.9426  88.1201 15.71373374  3994
STARLINK-6313           
1 56519U 23065S   23151.87945067  .00061597  00000+0  46933-3 0  9995
2 56519  42.9999 337.6875 0002202 268.6222  91.4393 15.71373067  3993
STARLINK-6344           
1 56520U 23065T   23151.87976705  .00020193  00000+0  15696-3 0  9999
2 56520  43.0001 337.6897 0001992 268.9136  91.1504 15.71369468  3998
STARLINK-6333           
1 56521U 23065U   23151.87923606  .00010400  00000+0  82635-4 0  9990
2 56521  42.9999 337.6867 0002366 268.1940  91.8657 15.71361280  3991
STARLINK-6327           
1 56522U 23065V   23151.87955514  .00035118  00000+0  26977-3 0  9993
2 56522  43.0002 337.6879 0002085 276.0840  83.9791 15.71384980  3990
STARLINK-6328           
1 56523U 23065W   23151.87903060  .00005510  00000+0  45422-4 0  9993
2 56523  43.0001 337.6845 0001915 276.2837  83.7813 15.71365376  3993
STARLINK-6323           
1 56524U 23065X   23151.87934728  .00015959  00000+0  12486-3 0  9990
2 56524  42.9999 337.6867 0002065 271.2752  88.7879 15.71365147  3993
STARLINK-6329           
1 56525U 23065Y   23151.87882253  .00043229  00000+0  33133-3 0  9999
2 56525  42.9997 337.6832 0002221 273.2843  86.7771 15.71358701  3998
STARLINK-6317           
1 56526U 23065Z   23151.87913377  .00011116  00000+0  88043-4 0  9993
2 56526  43.0001 337.6846 0002195 267.8733  92.1883 15.71371060  3997
STARLINK-6335           
1 56527U 23065AA  23151.87871345  .00040666  00000+0  31158-3 0  9998
2 56527  42.9997 337.6818 0002004 265.5228  94.5411 15.71389665  3995
STARLINK-6337           
1 56528U 23065AB  23151.87891525  .00010937  00000+0  86787-4 0  9998
2 56528  43.0003 337.6837 0001683 272.8384  87.2291 15.71342498  3991
STARLINK-6307           
1 56529U 23065AC  23151.75117120  .00007906  00000+0  63653-4 0  9997
2 56529  42.9998 338.4457 0001999 272.4538  87.6101 15.71364873  3970
STARLINK-6318           
1 56530U 23065AD  23151.87861101  .00018515  00000+0  14425-3 0  9997
2 56530  42.9998 337.6818 0002044 269.8009  90.2625 15.71366785  3996
STARLINK-6280           
1 56531U 23065AE  23151.87818581 -.00021016  00000+0 -15723-3 0  9996
2 56531  42.9997 337.6776 0004995 263.1100  96.9200 15.71331851  3993
STARLINK-6319           
1 56532U 23065AF  23151.87850717  .00007051  00000+0  57164-4 0  9991
2 56532  42.9997 337.6803 0001866 268.6374  91.4280 15.71356944  3990
STARLINK-6310           
1 56533U 23065AG  23151.68758247 -.00657003  00000+0 -56410-2 0  9997
2 56533  42.9997 338.8287 0001958 261.9172  98.1473 15.70379561  3968
STARLINK-6308           
1 56534U 23065AH  23151.87837900  .00276723  00000+0  20227-2 0  9994
2 56534  42.9997 337.6783 0002535 320.8009  39.2675 15.71607122  3994
STARLINK-6309           
1 56535U 23065AJ  23151.91667824 -.00858739  00000+0 -79401-2 0  9999
2 56535  43.0000 337.4512 0001370 272.9789 303.8348 15.69206598  3219
STARLINK-6312           
1 56536U 23065AK  23151.87799335 -.00015639  00000+0 -11777-3 0  9995
2 56536  42.9997 337.6761 0002297 256.5776 103.4836 15.71003213  3997
STARLINK-6311           
1 56537U 23065AL  23151.91667824 -.00855688  00000+0 -79075-2 0  9998
2 56537  42.9999 337.4500 0001302 274.8880 302.5439 15.69211406  3212
STARLINK-6314           
1 56538U 23065AM  23151.75085586  .00018912  00000+0  14724-3 0  9990
2 56538  42.9998 338.4427 0002080 270.9498  89.1131 15.71370108  3975
STARLINK-6135           
1 56539U 23065AN  23151.91667824 -.00856798  00000+0 -79167-2 0  9995
2 56539  42.9999 337.4483 0001356 273.7444 304.3075 15.69217441  3218
STARLINK-6136           
1 56540U 23065AP  23151.91667824 -.00859145  00000+0 -79481-2 0  9995
2 56540  42.9998 337.4543 0001383 275.0070 300.5685 15.69194905  3210
STARLINK-6249           
1 56541U 23065AQ  23151.91667824 -.00859475  00000+0 -79376-2 0  9995
2 56541  42.9998 337.4439 0001377 271.5382 308.3697 15.69236765  3215
STARLINK-6266           
1 56542U 23065AR  23151.81416070 -.00402509  00000+0 -33674-2 0  9993
2 56542  42.9997 338.0572 0002570 273.0226  87.0347 15.70262576  3988
STARLINK-6228           
1 56543U 23065AS  23151.91667824 -.00857681  00000+0 -79157-2 0  9991
2 56543  42.9995 337.4413 0001369 269.2320 311.9135 15.69247593  3211
STARLINK-6226           
1 56544U 23065AT  23151.87711354 -.00123278  00000+0 -94013-3 0  9992
2 56544  42.9988 337.6688 0010097 268.6310  91.3401 15.71533757  3993
STARLINK-6086           
1 56545U 23065AU  23151.91667824 -.00858275  00000+0 -79177-2 0  9995
2 56545  42.9999 337.4377 0001371 269.1405 313.2418 15.69259887  3210
STARLINK-6187           
1 56546U 23065AV  23151.91667824 -.00855734  00000+0 -78982-2 0  9996
2 56546  42.9999 337.4419 0001369 273.2915 307.2358 15.69240392  3214
STARLINK-6291           
1 56547U 23065AW  23151.74961638 -.00469970  00000+0 -39377-2 0  9996
2 56547  42.9996 338.4337 0003694 250.1593 109.8877 15.70411391  3977
STARLINK-6244           
1 56548U 23065AX  23151.74965364  .00101156  00000+0  75903-3 0  9990
2 56548  42.9997 338.4338 0007188 255.6340 104.3730 15.71527108  3975
STARLINK-6263           
1 56549U 23065AY  23151.91667824 -.00856443  00000+0 -78915-2 0  9993
2 56549  42.9997 337.4318 0001367 268.8563 315.9995 15.69282645  3210
STARLINK-6255           
1 56550U 23065AZ  23151.91667824 -.00857215  00000+0 -79051-2 0  9995
2 56550  42.9997 337.4363 0001343 273.5538 309.4465 15.69265525  3219
STARLINK-6199           
1 56551U 23065BA  23151.91667824 -.00858260  00000+0 -79057-2 0  9993
2 56551  42.9997 337.4289 0001396 276.1638 309.9281 15.69295477  3215
STARLINK-5802           
1 56552U 23065BB  23151.91667824 -.00855505  00000+0 -78841-2 0  9993
2 56552  42.9997 337.4330 0001369 271.3708 312.8670 15.69276060  3210
STARLINK-6074           
1 56553U 23065BC  23151.68546829 -.00490029  00000+0 -40998-2 0  9997
2 56553  42.9997 338.8131 0001815 250.9579 109.1092 15.70517878  3964
STARLINK-6295           
1 56554U 23065BD  23151.91667824 -.00858084  00000+0 -79060-2 0  9994
2 56554  43.0000 337.4299 0001369 277.5161 307.9575 15.69289382  3214
STARLINK-6252           
1 56555U 23065BE  23151.87616981 -.00634223  00000+0 -55341-2 0  9991
2 56555  42.9992 337.6628 0001765 278.2825  81.7842 15.69931336  3998
STARLINK-5302           
1 56556U 23065BF  23151.91667824 -.00859475  00000+0 -79140-2 0  9990
2 56556  42.9999 337.4252 0001370 271.9938 315.3331 15.69308068  3218
STARLINK-6265           
1 56557U 23065BG  23151.24004407  .00132835  00000+0  99420-3 0  9995
2 56557  42.9994 341.4945 0004210   1.9156 358.1727 15.71493813  3891
STARLINK-6286           
1 56558U 23065BH  23150.98571612 -.00062078  00000+0 -47525-3 0  9995
2 56558  42.9997 343.0261 0001787 319.0647  41.0087 15.71265862  3852
FALCON 9 DEB            
1 56559U 23065BJ  23151.86309425  .00326047  48479-4  90606-3 0  9997
2 56559  43.0152 335.7759 0017254 100.7098 259.5721 15.92712125  3593
FALCON 9 DEB            
1 56560U 23065BK  23151.85744203  .00342029  53076-4  91392-3 0  9995
2 56560  43.0117 335.7254 0014255 105.7600 254.4849 15.93532191  3597
FALCON 9 DEB            
1 56561U 23065BL  23151.90733444  .00326451  49710-4  81386-3 0  9990
2 56561  43.0084 335.2206 0012954  85.4826 274.7531 15.94861995  3604
FALCON 9 DEB            
1 56562U 23065BM  23151.90739069  .00312167  45886-4  79682-3 0  9995
2 56562  43.0067 335.2180 0012343  88.2021 272.0269 15.94445776  3601
BEIDOU-3 G4             
1 56564U 23066A   23150.58938247 -.00000095  00000+0  00000+0 0  9993
2 56564   3.0836 289.3900 0006251 182.1045 148.5245  1.00273324   230
